NORAD_CAT_ID,OBJECT_NAME,OBJECT_TYPE,EPOCH,MEAN_MOTION,ECCENTRICITY,INCLINATION,RA_OF_ASC_NODE,ARG_OF_PERICENTER,MEAN_ANOMALY,BSTAR,MEAN_MOTION_DOT,MEAN_MOTION_DDOT,TLE_LINE0,TLE_LINE1,TLE_LINE2,SEMIMAJOR_AXIS,PERIOD,APOGEE,PERIGEE,DECAYED
53277.0,STARLINK-4178,PAYLOAD,2023-02-08 15:55:19,15.08829224,0.0001186,53.2154,194.5886,82.7897,277.323,-6.1813e-05,-1.271e-05,0.0,0 STARLINK-4178,1 53277U 22086AM  23039.66341870 -.00001271  00000-0 -61813-4 0  9990,2 53277  53.2154 194.5886 0001186  82.7897 277.3230 15.08829224 31351,6917.913,95.438,540.599,538.958,0.0
53277.0,STARLINK-4178,PAYLOAD,2023-02-09 03:03:00,15.08837695,0.0001191,53.2157,192.5072,74.48,285.6323,1.2281e-05,-9.2e-07,0.0,0 STARLINK-4178,1 53277U 22086AM  23040.12709250 -.00000092  00000-0  12281-4 0  9997,2 53277  53.2157 192.5072 0001191  74.4800 285.6323 15.08837695 31252,6917.887,95.438,540.576,538.929,0.0
53277.0,STARLINK-4178,PAYLOAD,2023-02-09 17:21:28,15.08844394,0.0001058,53.2156,189.8313,72.9849,287.1259,1.7554e-05,-8e-08,0.0,0 STARLINK-4178,1 53277U 22086AM  23040.72324913 -.00000008  00000-0  17554-4 0  9997,2 53277  53.2156 189.8313 0001058  72.9849 287.1259 15.08844394 31514,6917.867,95.437,540.464,539.0,0.0
53277.0,STARLINK-4178,PAYLOAD,2023-02-10 02:53:47,15.08842693,9.16e-05,53.2157,188.0467,83.4625,276.6472,-4.677e-05,-1.032e-05,0.0,0 STARLINK-4178,1 53277U 22086AM  23041.12069055 -.00001032  00000-0 -46770-4 0  9996,2 53277  53.2157 188.0467 0000916  83.4625 276.6472 15.08842693 31573,6917.872,95.437,540.371,539.103,0.0
53277.0,STARLINK-4178,PAYLOAD,2023-02-10 15:36:53,15.08831964,0.0001075,53.2165,185.6686,68.367,291.7436,6.291e-05,7.13e-06,0.0,0 STARLINK-4178,1 53277U 22086AM  23041.65061670  .00000713  00000-0  62910-4 0  9996,2 53277  53.2165 185.6686 0001075  68.3670 291.7436 15.08831964 31484,6917.905,95.438,540.514,539.026,0.0
53277.0,STARLINK-4178,PAYLOAD,2023-02-11 02:44:34,15.0884018,0.0001036,53.2155,183.5888,70.7206,289.3898,2.4852e-05,1.08e-06,0.0,0 STARLINK-4178,1 53277U 22086AM  23042.11429369  .00000108  00000-0  24852-4 0  9992,2 53277  53.2155 183.5888 0001036  70.7206 289.3898 15.08840180 31556,6917.88,95.438,540.462,539.028,0.0
53277.0,STARLINK-4178,PAYLOAD,2023-02-11 18:38:26,15.0883508,0.0001014,53.2161,180.6155,70.4115,289.6987,5.1916e-05,5.38e-06,0.0,0 STARLINK-4178,1 53277U 22086AM  23042.77669593  .00000538  00000-0  51916-4 0  9997,2 53277  53.2161 180.6155 0001014  70.4115 289.6987 15.08835080 31825,6917.895,95.438,540.462,539.059,0.0
53277.0,STARLINK-4178,PAYLOAD,2023-02-12 04:10:45,15.08835256,0.0001185,53.2151,178.8269,101.6171,258.4954,-1.3213e-05,-4.98e-06,0.0,0 STARLINK-4178,1 53277U 22086AM  23043.17413744 -.00000498  00000-0 -13213-4 0  9992,2 53277  53.2151 178.8269 0001185 101.6171 258.4954 15.08835256 31718,6917.895,95.438,540.58,538.94,0.0
53277.0,STARLINK-4178,PAYLOAD,2023-02-12 10:32:18,15.08831197,0.0001284,53.2157,177.6407,86.5683,273.5456,-2.3657e-05,-6.64e-06,0.0,0 STARLINK-4178,1 53277U 22086AM  23043.43910254 -.00000664  00000-0 -23657-4 0  9997,2 53277  53.2157 177.6407 0001284  86.5683 273.5456 15.08831197 31922,6917.907,95.438,540.661,538.884,0.0
53277.0,STARLINK-4178,PAYLOAD,2023-02-12 15:18:27,15.08842206,0.0001079,53.2172,176.7491,84.1976,275.9139,5.7576e-05,6.29e-06,0.0,0 STARLINK-4178,1 53277U 22086AM  23043.63781306  .00000629  00000-0  57576-4 0  9999,2 53277  53.2172 176.7491 0001079  84.1976 275.9139 15.08842206 31784,6917.874,95.437,540.485,538.992,0.0
53277.0,STARLINK-4178,PAYLOAD,2023-02-13 11:58:28,15.08836846,0.0001299,53.2159,172.8797,98.9953,261.1186,2.1777e-05,5.9e-07,0.0,0 STARLINK-4178,1 53277U 22086AM  23044.49893742  .00000059  00000-0  21777-4 0  9993,2 53277  53.2159 172.8797 0001299  98.9953 261.1186 15.08836846 31914,6917.89,95.438,540.654,538.856,0.0
53277.0,STARLINK-4178,PAYLOAD,2023-02-13 19:55:22,15.08858955,0.0001158,53.2156,171.3936,92.043,268.0695,4.247e-05,3.88e-06,0.0,0 STARLINK-4178,1 53277U 22086AM  23044.83012234  .00000388  00000-0  42470-4 0  9998,2 53277  53.2156 171.3936 0001158  92.0430 268.0695 15.08858955 31960,6917.822,95.436,540.489,538.886,0.0
53277.0,STARLINK-4178,PAYLOAD,2023-02-14 08:38:30,15.08817773,0.0001123,53.2168,169.0158,100.5101,259.6017,-8.1153e-06,-4.17e-06,0.0,0 STARLINK-4178,1 53277U 22086AM  23045.36006949 -.00000417  00000-0 -81153-5 0  9990,2 53277  53.2168 169.0158 0001123 100.5101 259.6017 15.08817773 32042,6917.948,95.439,540.59,539.036,0.0
53277.0,STARLINK-4178,PAYLOAD,2023-02-14 15:00:01,15.08841033,9.61e-05,53.2164,167.8266,93.9185,266.1916,8.0316e-05,9.91e-06,0.0,0 STARLINK-4178,1 53277U 22086AM  23045.62501366  .00000991  00000-0  80316-4 0  9996,2 53277  53.2164 167.8266 0000961  93.9185 266.1916 15.08841033 32250,6917.877,95.437,540.407,539.077,0.0
53277.0,STARLINK-4178,PAYLOAD,2023-02-14 18:10:46,15.08854134,0.0001153,53.2165,167.2303,94.835,265.2774,5.1109e-05,5.26e-06,0.0,0 STARLINK-4178,1 53277U 22086AM  23045.75748471  .00000526  00000-0  51109-4 0  9992,2 53277  53.2165 167.2303 0001153  94.8350 265.2774 15.08854134 32107,6917.837,95.437,540.5,538.905,0.0
53277.0,STARLINK-4178,PAYLOAD,2023-02-15 11:40:02,15.08838814,0.0001298,53.2165,163.9606,86.0601,274.0539,-9.9808e-05,-1.876e-05,0.0,0 STARLINK-4178,1 53277U 22086AM  23046.48614167 -.00001876  00000-0 -99808-4 0  9996,2 53277  53.2165 163.9606 0001298  86.0601 274.0539 15.08838814 32214,6917.884,95.438,540.647,538.851,0.0
53277.0,STARLINK-4178,PAYLOAD,2023-02-15 14:50:47,15.08863934,0.0001062,53.2166,163.3653,90.1508,269.9606,7.6242e-05,9.27e-06,0.0,0 STARLINK-4178,1 53277U 22086AM  23046.61859999  .00000927  00000-0  76242-4 0  9996,2 53277  53.2166 163.3653 0001062  90.1508 269.9606 15.08863934 32402,6917.807,95.436,540.407,538.938,0.0
53277.0,STARLINK-4178,PAYLOAD,2023-02-15 19:36:55,15.08871475,0.0001158,53.2169,162.472,89.5871,270.5254,0.00016875,2.401e-05,0.0,0 STARLINK-4178,1 53277U 22086AM  23046.81730927  .00002401  00000-0  16875-3 0  9991,2 53277  53.2169 162.4720 0001158  89.5871 270.5254 15.08871475 32261,6917.784,95.436,540.45,538.848,0.0
53277.0,STARLINK-4178,PAYLOAD,2023-02-16 13:06:13,15.08830587,0.0001295,53.2163,159.2058,67.7653,292.3476,-0.00010681,-1.987e-05,0.0,0 STARLINK-4178,1 53277U 22086AM  23047.54598878 -.00001987  00000-0 -10681-3 0  9998,2 53277  53.2163 159.2058 0001295  67.7653 292.3476 15.08830587 32370,6917.909,95.438,540.67,538.878,0.0
53277.0,STARLINK-4178,PAYLOAD,2023-02-16 16:16:58,15.08848887,9.26e-05,53.2162,158.608,82.3748,277.7349,3.3301e-05,2.42e-06,0.0,0 STARLINK-4178,1 53277U 22086AM  23047.67844996  .00000242  00000-0  33301-4 0  9993,2 53277  53.2162 158.6080 0000926  82.3748 277.7349 15.08848887 32395,6917.853,95.437,540.359,539.078,0.0
53277.0,STARLINK-4178,PAYLOAD,2023-02-17 16:07:46,15.08846254,0.0001288,53.2174,154.1457,77.1561,282.9575,-0.00020986,-3.627e-05,0.0,0 STARLINK-4178,1 53277U 22086AM  23048.67206278 -.00003627  00000-0 -20986-3 0  9995,2 53277  53.2174 154.1457 0001288  77.1561 282.9575 15.08846254 32546,6917.861,95.437,540.617,538.835,0.0
53277.0,STARLINK-4178,PAYLOAD,2023-02-17 19:18:31,15.08863152,0.0001198,53.2178,153.5507,72.8371,287.2753,-5.7371e-05,-1.201e-05,0.0,0 STARLINK-4178,1 53277U 22086AM  23048.80452764 -.00001201  00000-0 -57371-4 0  9998,2 53277  53.2178 153.5507 0001198  72.8371 287.2753 15.08863152 32733,6917.81,95.436,540.503,538.846,0.0
53277.0,STARLINK-4178,PAYLOAD,2023-02-18 15:58:34,15.08828708,0.0001907,53.2162,149.6837,86.877,273.244,-0.00012014,-2.199e-05,0.0,0 STARLINK-4178,1 53277U 22086AM  23049.66568137 -.00002199  00000-0 -12014-3 0  9996,2 53277  53.2162 149.6837 0001907  86.8770 273.2440 15.08828708 32695,6917.915,95.438,541.099,538.461,0.0
53277.0,STARLINK-4178,PAYLOAD,2023-02-18 23:55:29,15.08842061,0.0001679,53.2179,148.1983,75.629,284.4889,-4.8807e-05,-1.065e-05,0.0,0 STARLINK-4178,1 53277U 22086AM  23049.99686822 -.00001065  00000-0 -48807-4 0  9995,2 53277  53.2179 148.1983 0001679  75.6290 284.4889 15.08842061 32743,6917.874,95.437,540.901,538.578,0.0
53277.0,STARLINK-4178,PAYLOAD,2023-02-19 12:38:33,15.08859242,0.0001422,53.2153,145.8191,80.4823,279.633,7.6995e-05,9.38e-06,0.0,0 STARLINK-4178,1 53277U 22086AM  23050.52677431  .00000938  00000-0  76995-4 0  9997,2 53277  53.2153 145.8191 0001422  80.4823 279.6330 15.08859242 32827,6917.822,95.436,540.67,538.703,0.0
53277.0,STARLINK-4178,PAYLOAD,2023-02-19 23:46:16,15.08847727,0.0003046,53.2166,143.7383,68.2769,291.8547,-5.6015e-05,-1.18e-05,0.0,0 STARLINK-4178,1 53277U 22086AM  23050.99046698 -.00001180  00000-0 -56015-4 0  9996,2 53277  53.2166 143.7383 0003046  68.2769 291.8547 15.08847727 32896,6917.857,95.437,541.829,537.615,0.0
53277.0,STARLINK-4178,PAYLOAD,2023-02-20 12:29:21,15.08840557,0.0001306,53.2163,141.3614,87.4755,272.6387,-1.2507e-05,-4.87e-06,0.0,0 STARLINK-4178,1 53277U 22086AM  23051.52038751 -.00000487  00000-0 -12507-4 0  9994,2 53277  53.2163 141.3614 0001306  87.4755 272.6387 15.08840557 33141,6917.879,95.438,540.647,538.84,0.0
53277.0,STARLINK-4178,PAYLOAD,2023-02-21 12:20:07,15.08853818,0.0001253,53.2159,136.901,83.0689,277.0445,-0.00010067,-1.89e-05,0.0,0 STARLINK-4178,1 53277U 22086AM  23052.51397897 -.00001890  00000-0 -10067-3 0  9990,2 53277  53.2159 136.9010 0001253  83.0689 277.0445 15.08853818 33121,6917.838,95.437,540.57,538.836,0.0
53277.0,STARLINK-4178,PAYLOAD,2023-02-21 17:06:16,15.08862538,0.0001445,53.2179,136.0078,92.5809,267.5348,2.0106e-05,3.2e-07,0.0,0 STARLINK-4178,1 53277U 22086AM  23052.71268705  .00000032  00000-0  20106-4 0  9998,2 53277  53.2179 136.0078 0001445  92.5809 267.5348 15.08862538 33158,6917.812,95.436,540.676,538.677,0.0
53277.0,STARLINK-4178,PAYLOAD,2023-02-22 10:35:32,15.08830599,0.0001335,53.2168,132.7389,84.2419,275.8726,-6.9734e-06,-3.99e-06,0.0,0 STARLINK-4178,1 53277U 22086AM  23053.44134741 -.00000399  00000-0 -69734-5 0  9990,2 53277  53.2168 132.7389 0001335  84.2419 275.8726 15.08830599 33263,6917.909,95.438,540.698,538.851,0.0
